OBJECT_NAME,OBJECT_ID,EPOCH,MEAN_MOTION,ECCENTRICITY,INCLINATION,RA_OF_ASC_NODE,ARG_OF_PERICENTER,MEAN_ANOMALY,EPHEMERIS_TYPE,CLASSIFICATION_TYPE,NORAD_CAT_ID,ELEMENT_SET_NO,REV_AT_EPOCH,BSTAR,MEAN_MOTION_DOT,MEAN_MOTION_DDOT
TIANMU-1 20,2023-208B,2026-07-15T21:57:34.153632,15.33171054,.00064026,97.4473,314.0381,209.1944,150.8941,0,U,58661,999,14182,.14021151E-3,.4415E-4,0
TIANMU-1 21,2023-208C,2026-07-15T22:11:19.406688,15.35559720,.00067709,97.4533,316.8545,201.4418,158.6543,0,U,58662,999,14197,.15300034E-3,.5208E-4,0
TIANMU-1 22,2023-208D,2026-07-15T21:23:22.322112,15.31432808,.00028012,97.4527,313.2601,215.0935,145.0122,0,U,58663,999,14172,.13400052E-3,.3989E-4,0
TIANMU-1 15,2024-004A,2026-07-15T22:24:27.969120,15.26918123,.00061053,97.4667,23.1242,225.3385,134.7356,0,U,58700,999,14016,.11002198E-3,.2834E-4,0
TIANMU-1 16,2024-004B,2026-07-15T22:09:13.536576,15.27021255,.00044868,97.4615,22.3299,242.1238,117.9546,0,U,58701,999,14016,.10721077E-3,.2768E-4,0
TIANMU-1 17,2024-004C,2026-07-15T23:22:41.032128,15.27019176,.00039477,97.4642,22.8763,248.0534,112.0285,0,U,58702,999,14016,.10839024E-3,.2799E-4,0
TIANMU-1 18,2024-004D,2026-07-15T22:48:18.761760,15.26934228,.00038239,97.4659,23.1152,221.2665,138.8285,0,U,58703,999,14016,.10462139E-3,.2692E-4,0
INSAT-3DS,2024-033A,2026-07-15T22:18:47.903040,1.00270850,.00010865,0.0891,264.6156,224.1397,221.7800,0,U,58990,999,4735,0,-.166E-5,0
METEOR-M2 4,2024-039A,2026-07-15T22:52:44.289696,14.22432188,.00082561,98.7026,155.8923,86.8842,273.3280,0,U,59051,999,12335,.12598906E-4,-.16E-6,0
GOES 19,2024-119A,2026-07-15T23:14:25.021824,1.00271291,.000041,0.0131,94.6279,114.0287,358.5568,0,U,60133,999,725,0,-.259E-5,0
MTG-S1,2025-143A,2026-07-15T21:16:38.625888,1.00273732,.00034271,0.5838,345.2794,260.9778,6.2294,0,U,64723,999,370,0,-.17E-6,0
METOP-SGA1,2025-172A,2026-07-14T18:20:46.629312,14.19819127,.00070989,98.6631,254.9090,333.3306,26.7504,0,U,65159,999,4770,.2916334E-4,.19E-6,0
FENGYUN 3H,2025-219A,2026-07-15T20:40:50.194848,14.19924852,.000113,98.6770,137.0741,62.4544,297.6747,0,U,65815,999,4145,.2389285E-4,.7E-7,0
