TIANMU-1 20             
1 58661U 23208B   26196.91497863  .00004415  00000+0  14021-3 0  9996
2 58661  97.4473 314.0381 0006402 209.1944 150.8941 15.33171054141827
TIANMU-1 21             
1 58662U 23208C   26196.92453017  .00005208  00000+0  15300-3 0  9993
2 58662  97.4533 316.8545 0006770 201.4418 158.6543 15.35559720141978
TIANMU-1 22             
1 58663U 23208D   26196.89123058  .00003989  00000+0  13400-3 0  9992
2 58663  97.4527 313.2601 0002801 215.0935 145.0122 15.31432808141721
TIANMU-1 15             
1 58700U 24004A   26196.93365705  .00002834  00000+0  11002-3 0  9995
2 58700  97.4667  23.1242 0006105 225.3385 134.7356 15.26918123140164
TIANMU-1 16             
1 58701U 24004B   26196.92307334  .00002768  00000+0  10721-3 0  9992
2 58701  97.4615  22.3299 0004486 242.1238 117.9546 15.27021255140161
TIANMU-1 17             
1 58702U 24004C   26196.97408602  .00002799  00000+0  10839-3 0  9992
2 58702  97.4642  22.8763 0003947 248.0534 112.0285 15.27019176140163
TIANMU-1 18             
1 58703U 24004D   26196.95021715  .00002692  00000+0  10462-3 0  9991
2 58703  97.4659  23.1152 0003823 221.2665 138.8285 15.26934228140168
INSAT-3DS               
1 58990U 24033A   26196.92972110 -.00000166  00000+0  00000+0 0  9990
2 58990   0.0891 264.6156 0001086 224.1397 221.7800  1.00270850 47356
METEOR-M2 4             
1 59051U 24039A   26196.95329039 -.00000016  00000+0  12599-4 0  9999
2 59051  98.7026 155.8923 0008256  86.8842 273.3280 14.22432188123358
GOES 19                 
1 60133U 24119A   26196.96834516 -.00000259  00000+0  00000+0 0  9991
2 60133   0.0131  94.6279 0000410 114.0287 358.5568  1.00271291  7252
MTG-S1                  
1 64723U 25143A   26196.88655817 -.00000017  00000+0  00000+0 0  9996
2 64723   0.5838 345.2794 0003427 260.9778   6.2294  1.00273732  3705
METOP-SGA1              
1 65159U 25172A   26195.76442858  .00000019  00000+0  29163-4 0  9994
2 65159  98.6631 254.9090 0007098 333.3306  26.7504 14.19819127 47700
FENGYUN 3H              
1 65815U 25219A   26196.86169207  .00000007  00000+0  23893-4 0  9992
2 65815  98.6770 137.0741 0001130  62.4544 297.6747 14.19924852 41458
